IONOSFERA-M 4           
1 64877U 25155B   26168.13988477  .00000037  00000+0  36682-4 0  9998
2 64877  98.6031 129.9635 0001040 119.9894 240.1387 14.21488632 46398
MICROCARB               
1 64899U 25156A   26168.08178723  .00000409  00000+0  72460-4 0  9999
2 64899  97.9832 245.2210 0014954 272.6079  87.3416 14.72325374 47950
CO3D 3                  
1 64900U 25156B   26167.59522303  .00003552  00000+0  16709-3 0  9999
2 64900  97.4333 246.2967 0001478 132.9182 227.2177 15.20207450 49447
CO3D 4                  
1 64901U 25156C   26167.46373336  .00000259  00000+0  15064-4 0  9991
2 64901  97.4332 246.1670 0000283   1.9274 358.1962 15.20193539 49423
CO3D 2                  
1 64902U 25156D   26168.15444206  .00003627  00000+0  17060-3 0  9993
2 64902  97.4330 246.7468 0001484 106.3533 253.7865 15.20196249 49529
CO3D 1                  
1 64903U 25156E   26168.15459406  .00004298  00000+0  20160-3 0  9992
2 64903  97.4329 246.7470 0001286 110.4174 249.7199 15.20195791 49524
PRSC-S1                 
1 65055U 25164A   26168.19765206  .00004087  00000+0  28374-3 0  9993
2 65055  41.1312 287.7539 0006600 343.7769  16.2833 15.06459293 48433
SENTINEL-6B             
1 66514U 25264A   26168.16390744 -.00000072  00000+0 -47803-4 0  9994
2 66514  66.0395 135.2267 0008025 269.1761  90.8334 12.80929932 27164
CAS500-3                
1 66655U 25274F   26168.08077921  .00001051  00000+0  11944-3 0  9993
2 66655  97.7446  96.1342 0006751 110.3639 249.8304 14.88320902 30138
CSG-3                   
1 67304U 26001A   26168.06401723  .00000237  00000+0  36279-4 0  9997
2 67304  97.8887 351.6676 0001379  94.5456 265.5915 14.82153752 24441
PRSC-E03                
1 68835U 26092A   26168.12196792  .00002244  00000+0  15557-3 0  9996
2 68835  38.0007  90.0647 0003728   3.7378 356.3411 15.06668513  7948
CAS500-2                
1 69013U 26100AK  26167.95476656  .00005081  00000+0  23470-3 0  9990
2 69013  97.4076  65.8138 0010734  35.5022 324.6926 15.20588061  6775
