OBJECT_NAME,OBJECT_ID,EPOCH,MEAN_MOTION,ECCENTRICITY,INCLINATION,RA_OF_ASC_NODE,ARG_OF_PERICENTER,MEAN_ANOMALY,EPHEMERIS_TYPE,CLASSIFICATION_TYPE,NORAD_CAT_ID,ELEMENT_SET_NO,REV_AT_EPOCH,BSTAR,MEAN_MOTION_DOT,MEAN_MOTION_DDOT
IONOSFERA-M 4,2025-155B,2026-06-17T03:21:26.044128,14.21488632,.000104,98.6031,129.9635,119.9894,240.1387,0,U,64877,999,4639,.36682E-4,.37E-6,0
MICROCARB,2025-156A,2026-06-17T01:57:46.416672,14.72325374,.0014954,97.9832,245.2210,272.6079,87.3416,0,U,64899,999,4795,.7246E-4,.409E-5,0
CO3D 3,2025-156B,2026-06-16T14:17:07.269792,15.20207450,.0001478,97.4333,246.2967,132.9182,227.2177,0,U,64900,999,4944,.16709E-3,.3552E-4,0
CO3D 4,2025-156C,2026-06-16T11:07:46.562304,15.20193539,.00002837,97.4332,246.1670,1.9274,358.1962,0,U,64901,999,4942,.1506382E-4,.259E-5,0
CO3D 2,2025-156D,2026-06-17T03:42:23.793984,15.20196249,.0001484,97.4330,246.7468,106.3533,253.7865,0,U,64902,999,4952,.1706E-3,.3627E-4,0
CO3D 1,2025-156E,2026-06-17T03:42:36.926784,15.20195791,.0001286,97.4329,246.7470,110.4174,249.7199,0,U,64903,999,4952,.2016E-3,.4298E-4,0
PRSC-S1,2025-164A,2026-06-17T04:44:37.137984,15.06459293,.00066,41.1312,287.7539,343.7769,16.2833,0,U,65055,999,4843,.28374E-3,.4087E-4,0
SENTINEL-6B,2025-264A,2026-06-17T03:56:01.602816,12.80929932,.0008025,66.0395,135.2267,269.1761,90.8334,0,U,66514,999,2716,-.47803E-4,-.72E-6,0
CAS500-3,2025-274F,2026-06-17T01:56:19.323744,14.88320902,.0006751,97.7446,96.1342,110.3639,249.8304,0,U,66655,999,3013,.11944E-3,.1051E-4,0
CSG-3,2026-001A,2026-06-17T01:32:11.088672,14.82153752,.0001379,97.8887,351.6676,94.5456,265.5915,0,U,67304,999,2444,.36279E-4,.237E-5,0
PRSC-E03,2026-092A,2026-06-17T02:55:38.028288,15.06668513,.0003728,38.0007,90.0647,3.7378,356.3411,0,U,68835,999,794,.15557E-3,.2244E-4,0
CAS500-2,2026-100AK,2026-06-16T22:54:51.830784,15.20588061,.0010734,97.4076,65.8138,35.5022,324.6926,0,U,69013,999,677,.2347E-3,.5081E-4,0
